[{"OBJECT_NAME":"YUNHAI-2 02E","OBJECT_ID":"2024-052E","EPOCH":"2026-03-09T23:04:08.218272","MEAN_MOTION":14.27923834,"ECCENTRICITY":0.00117453,"INCLINATION":50.0117,"RA_OF_ASC_NODE":23.2487,"ARG_OF_PERICENTER":69.3739,"MEAN_ANOMALY":290.8434,"EPHEMERIS_TYPE":0,"CLASSIFICATION_TYPE":"U","NORAD_CAT_ID":59284,"ELEMENT_SET_NO":999,"REV_AT_EPOCH":9275,"BSTAR":0.0001398659,"MEAN_MOTION_DOT":1.88e-6,"MEAN_MOTION_DDOT":0},{"OBJECT_NAME":"FENGYUN 1C DEB","OBJECT_ID":"1999-025BCN","EPOCH":"2026-03-09T16:54:54.269856","MEAN_MOTION":14.35901455,"ECCENTRICITY":0.00514836,"INCLINATION":98.9408,"RA_OF_ASC_NODE":341.8528,"ARG_OF_PERICENTER":35.8807,"MEAN_ANOMALY":29.0349,"EPHEMERIS_TYPE":0,"CLASSIFICATION_TYPE":"U","NORAD_CAT_ID":30996,"ELEMENT_SET_NO":999,"REV_AT_EPOCH":98811,"BSTAR":0.00097510781,"MEAN_MOTION_DOT":2.824e-5,"MEAN_MOTION_DDOT":0}]
